{"metar": [{"icaoId": "KPDK", "receiptTime": "2026-06-24T07:56:23.648Z", "obsTime": 1782287580, "reportTime": "2026-06-24T08:00:00.000Z", "temp": 17.8, "dewp": 15, "wdir": 340, "wspd": 4, "visib": "10+", "altim": 1019.7, "slp": 1018.2, "qcField": 6, "metarType": "METAR", "rawOb": "METAR KPDK 240753Z AUTO 34004KT 10SM CLR 18/15 A3011 RMK AO2 SLP182 T01780150", "lat": 33.8783, "lon": -84.298, "elev": 299, "name": "Atlanta/Dekalb-Peachtree Arpt, GA, US", "cover": "CLR", "clouds": [], "fltCat": "VFR"}], "taf": [{"icaoId": "KPDK", "dbPopTime": "2026-06-24T05:20:21.630Z", "bulletinTime": "2026-06-24T05:20:00.000Z", "issueTime": "2026-06-24T05:20:00.000Z", "validTimeFrom": 1782280800, "validTimeTo": 1782367200, "rawTAF": "TAF KPDK 240520Z 2406/2506 VRB04KT P6SM FEW250", "mostRecent": 1, "remarks": "", "lat": 33.87835, "lon": -84.29801, "elev": 299, "prior": 6, "name": "Atlanta/Dekalb-Peachtree Arpt", "fcsts": [{"timeFrom": 1782280800, "timeTo": 1782367200, "timeBec": null, "fcstChange": null, "probability": null, "wdir": "VRB", "wspd": 4, "wgst": null, "wshearHgt": null, "wshearDir": null, "wshearSpd": null, "visib": "6+", "altim": null, "vertVis": null, "wxString": null, "notDecoded": null, "clouds": [{"cover": "FEW", "base": 25000, "type": null}], "icgTurb": [], "temp": []}]}]}