{"metar": [{"icaoId": "KPDK", "receiptTime": "2026-06-24T12:56:29.860Z", "obsTime": 1782305580, "reportTime": "2026-06-24T13:00:00.000Z", "temp": 21.7, "dewp": 16.7, "wdir": 0, "wspd": 0, "visib": "10+", "altim": 1021.1, "slp": 1019.7, "qcField": 4, "metarType": "METAR", "rawOb": "METAR KPDK 241253Z 00000KT 10SM CLR 22/17 A3015 RMK AO2 SLP197 T02170167", "lat": 33.8783, "lon": -84.298, "elev": 299, "name": "Atlanta/Dekalb-Peachtree Arpt, GA, US", "cover": "CLR", "clouds": [], "fltCat": "VFR"}], "taf": [{"icaoId": "KPDK", "dbPopTime": "2026-06-24T11:40:58.488Z", "bulletinTime": "2026-06-24T11:40:00.000Z", "issueTime": "2026-06-24T11:40:00.000Z", "validTimeFrom": 1782302400, "validTimeTo": 1782388800, "rawTAF": "TAF KPDK 241140Z 2412/2512 VRB04KT P6SM FEW250", "mostRecent": 1, "remarks": "", "lat": 33.87835, "lon": -84.29801, "elev": 299, "prior": 6, "name": "Atlanta/Dekalb-Peachtree Arpt", "fcsts": [{"timeFrom": 1782302400, "timeTo": 1782388800, "timeBec": null, "fcstChange": null, "probability": null, "wdir": "VRB", "wspd": 4, "wgst": null, "wshearHgt": null, "wshearDir": null, "wshearSpd": null, "visib": "6+", "altim": null, "vertVis": null, "wxString": null, "notDecoded": null, "clouds": [{"cover": "FEW", "base": 25000, "type": null}], "icgTurb": [], "temp": []}]}]}