{"metar": [{"icaoId": "KPDK", "receiptTime": "2026-06-24T10:56:31.541Z", "obsTime": 1782298380, "reportTime": "2026-06-24T11:00:00.000Z", "temp": 16.1, "dewp": 15, "wdir": 0, "wspd": 0, "visib": "10+", "altim": 1020.7, "slp": 1019.4, "qcField": 4, "metarType": "METAR", "rawOb": "METAR KPDK 241053Z 00000KT 10SM CLR 16/15 A3014 RMK AO2 SLP194 T01610150", "lat": 33.8783, "lon": -84.298, "elev": 299, "name": "Atlanta/Dekalb-Peachtree Arpt, GA, US", "cover": "CLR", "clouds": [], "fltCat": "VFR"}], "taf": [{"icaoId": "KPDK", "dbPopTime": "2026-06-24T05:20:21.630Z", "bulletinTime": "2026-06-24T05:20:00.000Z", "issueTime": "2026-06-24T05:20:00.000Z", "validTimeFrom": 1782280800, "validTimeTo": 1782367200, "rawTAF": "TAF KPDK 240520Z 2406/2506 VRB04KT P6SM FEW250", "mostRecent": 1, "remarks": "", "lat": 33.87835, "lon": -84.29801, "elev": 299, "prior": 6, "name": "Atlanta/Dekalb-Peachtree Arpt", "fcsts": [{"timeFrom": 1782280800, "timeTo": 1782367200, "timeBec": null, "fcstChange": null, "probability": null, "wdir": "VRB", "wspd": 4, "wgst": null, "wshearHgt": null, "wshearDir": null, "wshearSpd": null, "visib": "6+", "altim": null, "vertVis": null, "wxString": null, "notDecoded": null, "clouds": [{"cover": "FEW", "base": 25000, "type": null}], "icgTurb": [], "temp": []}]}]}