{"metar": [{"icaoId": "KPDK", "receiptTime": "2026-06-24T15:56:34.219Z", "obsTime": 1782316380, "reportTime": "2026-06-24T16:00:00.000Z", "temp": 25, "dewp": 14.4, "wdir": 150, "wspd": 4, "visib": "10+", "altim": 1020.1, "slp": 1018.6, "qcField": 4, "metarType": "METAR", "rawOb": "METAR KPDK 241553Z 15004KT 10SM SCT045 25/14 A3012 RMK AO2 SLP186 T02500144", "lat": 33.8783, "lon": -84.298, "elev": 299, "name": "Atlanta/Dekalb-Peachtree Arpt, GA, US", "cover": "SCT", "clouds": [{"cover": "SCT", "base": 4500}], "fltCat": "VFR"}], "taf": [{"icaoId": "KPDK", "dbPopTime": "2026-06-24T11:40:58.488Z", "bulletinTime": "2026-06-24T11:40:00.000Z", "issueTime": "2026-06-24T11:40:00.000Z", "validTimeFrom": 1782302400, "validTimeTo": 1782388800, "rawTAF": "TAF KPDK 241140Z 2412/2512 VRB04KT P6SM FEW250", "mostRecent": 1, "remarks": "", "lat": 33.87835, "lon": -84.29801, "elev": 299, "prior": 6, "name": "Atlanta/Dekalb-Peachtree Arpt", "fcsts": [{"timeFrom": 1782302400, "timeTo": 1782388800, "timeBec": null, "fcstChange": null, "probability": null, "wdir": "VRB", "wspd": 4, "wgst": null, "wshearHgt": null, "wshearDir": null, "wshearSpd": null, "visib": "6+", "altim": null, "vertVis": null, "wxString": null, "notDecoded": null, "clouds": [{"cover": "FEW", "base": 25000, "type": null}], "icgTurb": [], "temp": []}]}]}